{
    "CCSDS_OMM_VERS": "3.0",
    "COMMENT": "GENERATED VIA SPACE-TRACK.ORG API",
    "CREATION_DATE": "2025-11-19T03:20:49",
    "ORIGINATOR": "18 SPCS",
    "OBJECT_NAME": "COSMOS 2584(GLONASS)",
    "OBJECT_ID": "2025-042A",
    "CENTER_NAME": "EARTH",
    "REF_FRAME": "TEME",
    "TIME_SYSTEM": "UTC",
    "MEAN_ELEMENT_THEORY": "SGP4",
    "EPOCH": "2025-11-17T23:22:57.933696",
    "MEAN_MOTION": "2.13103154",
    "ECCENTRICITY": "0.00073923",
    "INCLINATION": "64.9630",
    "RA_OF_ASC_NODE": "79.9894",
    "ARG_OF_PERICENTER": "210.4834",
    "MEAN_ANOMALY": "149.4551",
    "EPHEMERIS_TYPE": "0",
    "CLASSIFICATION_TYPE": "U",
    "NORAD_CAT_ID": "63130",
    "ELEMENT_SET_NO": "999",
    "REV_AT_EPOCH": "554",
    "BSTAR": "0.00000000000000",
    "MEAN_MOTION_DOT": "-0.00000032",
    "MEAN_MOTION_DDOT": "0.0000000000000",
    "SEMIMAJOR_AXIS": "25507.932",
    "PERIOD": "675.729",
    "APOAPSIS": "19148.654",
    "PERIAPSIS": "19110.941",
    "OBJECT_TYPE": "PAYLOAD",
    "RCS_SIZE": "LARGE",
    "COUNTRY_CODE": "CIS",
    "LAUNCH_DATE": "2025-03-02",
    "SITE": "PKMTR",
    "DECAY_DATE": null,
    "FILE": "4888721",
    "GP_ID": "302955650",
    "TLE_LINE0": "0 COSMOS 2584(GLONASS)",
    "TLE_LINE1": "1 63130U 25042A   25321.97428164 -.00000032  00000-0  00000-0 0  9996",
    "TLE_LINE2": "2 63130  64.9630  79.9894 0007392 210.4834 149.4551  2.13103154  5545"
}